[{"OBJECT_NAME":"ARCSAT-1","OBJECT_ID":"2022-033E","EPOCH":"2026-03-09T04:59:54.555648","MEAN_MOTION":15.50898478,"ECCENTRICITY":0.00053088,"INCLINATION":97.2734,"RA_OF_ASC_NODE":159.2089,"ARG_OF_PERICENTER":185.4192,"MEAN_ANOMALY":174.7004,"EPHEMERIS_TYPE":0,"CLASSIFICATION_TYPE":"U","NORAD_CAT_ID":52161,"ELEMENT_SET_NO":999,"REV_AT_EPOCH":22019,"BSTAR":0.00026094098,"MEAN_MOTION_DOT":0.00015015,"MEAN_MOTION_DDOT":0},{"OBJECT_NAME":"FLOCK 4Q-33","OBJECT_ID":"2023-174BE","EPOCH":"2026-03-09T17:24:33.346080","MEAN_MOTION":15.51260129,"ECCENTRICITY":0.00075156,"INCLINATION":97.3868,"RA_OF_ASC_NODE":157.6165,"ARG_OF_PERICENTER":134.5918,"MEAN_ANOMALY":225.5948,"EPHEMERIS_TYPE":0,"CLASSIFICATION_TYPE":"U","NORAD_CAT_ID":58308,"ELEMENT_SET_NO":999,"REV_AT_EPOCH":13038,"BSTAR":0.00064149158,"MEAN_MOTION_DOT":0.00037655,"MEAN_MOTION_DDOT":0}]
