ARCSAT-1                
1 52161U 22033E   26068.20827032  .00015015  00000+0  26094-3 0  9996
2 52161  97.2734 159.2089 0005308 185.4192 174.7004 15.50898478220191
FLOCK 4Q-33             
1 58308U 23174BE  26068.72538595  .00037655  00000+0  64149-3 0  9999
2 58308  97.3868 157.6165 0007516 134.5918 225.5948 15.51260129130380
